[{"OBJECT_NAME":"STARLINK-34669","OBJECT_ID":"2025-150X","EPOCH":"2026-03-09T13:53:08.837664","MEAN_MOTION":14.98326295,"ECCENTRICITY":0.0004017,"INCLINATION":70.002,"RA_OF_ASC_NODE":134.5952,"ARG_OF_PERICENTER":268.7258,"MEAN_ANOMALY":91.3441,"EPHEMERIS_TYPE":0,"CLASSIFICATION_TYPE":"U","NORAD_CAT_ID":64811,"ELEMENT_SET_NO":999,"REV_AT_EPOCH":3650,"BSTAR":1.7258e-6,"MEAN_MOTION_DOT":-7.3e-7,"MEAN_MOTION_DDOT":0},{"OBJECT_NAME":"UNISAT-5","OBJECT_ID":"2013-066F","EPOCH":"2026-03-09T22:02:55.134816","MEAN_MOTION":15.04155626,"ECCENTRICITY":0.00317175,"INCLINATION":97.6976,"RA_OF_ASC_NODE":39.5171,"ARG_OF_PERICENTER":68.1555,"MEAN_ANOMALY":292.3039,"EPHEMERIS_TYPE":0,"CLASSIFICATION_TYPE":"U","NORAD_CAT_ID":39421,"ELEMENT_SET_NO":999,"REV_AT_EPOCH":66774,"BSTAR":0.0004680489,"MEAN_MOTION_DOT":6.504e-5,"MEAN_MOTION_DDOT":0}]
